[{"OBJECT_NAME":"TEVEL2-7","OBJECT_ID":"2025-052AE","EPOCH":"2026-03-09T15:52:01.887744","MEAN_MOTION":15.28414096,"ECCENTRICITY":0.00081048,"INCLINATION":97.4054,"RA_OF_ASC_NODE":324.3041,"ARG_OF_PERICENTER":124.683,"MEAN_ANOMALY":235.5175,"EPHEMERIS_TYPE":0,"CLASSIFICATION_TYPE":"U","NORAD_CAT_ID":63238,"ELEMENT_SET_NO":999,"REV_AT_EPOCH":5480,"BSTAR":0.00069668191,"MEAN_MOTION_DOT":0.00019244,"MEAN_MOTION_DDOT":0},{"OBJECT_NAME":"STARLINK-33973","OBJECT_ID":"2025-095E","EPOCH":"2026-03-09T07:18:05.618880","MEAN_MOTION":15.27592782,"ECCENTRICITY":0.00016262,"INCLINATION":42.9999,"RA_OF_ASC_NODE":177.9814,"ARG_OF_PERICENTER":273.2693,"MEAN_ANOMALY":86.7973,"EPHEMERIS_TYPE":0,"CLASSIFICATION_TYPE":"U","NORAD_CAT_ID":63894,"ELEMENT_SET_NO":999,"REV_AT_EPOCH":4773,"BSTAR":0.0014293136,"MEAN_MOTION_DOT":0.00039295,"MEAN_MOTION_DDOT":0}]
